[{"OBJECT_NAME":"FLOCK 4BE-22","OBJECT_ID":"2024-149AC","EPOCH":"2026-03-07T11:34:26.375808","MEAN_MOTION":15.37624133,"ECCENTRICITY":0.00027737,"INCLINATION":97.3776,"RA_OF_ASC_NODE":149.3199,"ARG_OF_PERICENTER":269.692,"MEAN_ANOMALY":90.4007,"EPHEMERIS_TYPE":0,"CLASSIFICATION_TYPE":"U","NORAD_CAT_ID":60494,"ELEMENT_SET_NO":999,"REV_AT_EPOCH":8665,"BSTAR":0.00076312899,"MEAN_MOTION_DOT":0.00028171,"MEAN_MOTION_DDOT":0},{"OBJECT_NAME":"FLOCK 4BE-34","OBJECT_ID":"2024-149AD","EPOCH":"2026-03-07T12:06:44.616384","MEAN_MOTION":15.37884131,"ECCENTRICITY":0.00023518,"INCLINATION":97.3821,"RA_OF_ASC_NODE":150.0891,"ARG_OF_PERICENTER":272.1838,"MEAN_ANOMALY":87.9137,"EPHEMERIS_TYPE":0,"CLASSIFICATION_TYPE":"U","NORAD_CAT_ID":60495,"ELEMENT_SET_NO":999,"REV_AT_EPOCH":8668,"BSTAR":0.00061272573,"MEAN_MOTION_DOT":0.00022777,"MEAN_MOTION_DDOT":0},{"OBJECT_NAME":"FLOCK 4BE-32","OBJECT_ID":"2024-149AF","EPOCH":"2026-03-07T04:45:26.925984","MEAN_MOTION":15.38340527,"ECCENTRICITY":0.00027082,"INCLINATION":97.3766,"RA_OF_ASC_NODE":149.2876,"ARG_OF_PERICENTER":276.1202,"MEAN_ANOMALY":83.9735,"EPHEMERIS_TYPE":0,"CLASSIFICATION_TYPE":"U","NORAD_CAT_ID":60497,"ELEMENT_SET_NO":999,"REV_AT_EPOCH":8663,"BSTAR":0.00064717361,"MEAN_MOTION_DOT":0.00024428,"MEAN_MOTION_DDOT":0},{"OBJECT_NAME":"FLOCK 4BE-30","OBJECT_ID":"2024-149AH","EPOCH":"2026-03-07T11:15:53.537760","MEAN_MOTION":15.38120865,"ECCENTRICITY":0.00019823,"INCLINATION":97.3847,"RA_OF_ASC_NODE":150.1206,"ARG_OF_PERICENTER":271.7023,"MEAN_ANOMALY":88.3994,"EPHEMERIS_TYPE":0,"CLASSIFICATION_TYPE":"U","NORAD_CAT_ID":60499,"ELEMENT_SET_NO":999,"REV_AT_EPOCH":8605,"BSTAR":0.00046802956,"MEAN_MOTION_DOT":0.00017501,"MEAN_MOTION_DDOT":0},{"OBJECT_NAME":"FLOCK 4BE-11","OBJECT_ID":"2024-149AK","EPOCH":"2026-03-07T04:23:29.492736","MEAN_MOTION":15.39159463,"ECCENTRICITY":0.00030884,"INCLINATION":97.3745,"RA_OF_ASC_NODE":149.4006,"ARG_OF_PERICENTER":274.732,"MEAN_ANOMALY":85.3573,"EPHEMERIS_TYPE":0,"CLASSIFICATION_TYPE":"U","NORAD_CAT_ID":60501,"ELEMENT_SET_NO":999,"REV_AT_EPOCH":8664,"BSTAR":0.00062037405,"MEAN_MOTION_DOT":0.00024046,"MEAN_MOTION_DDOT":0},{"OBJECT_NAME":"FLOCK 4BE-24","OBJECT_ID":"2024-149AP","EPOCH":"2026-03-07T05:30:18.678240","MEAN_MOTION":15.39034866,"ECCENTRICITY":0.0002945,"INCLINATION":97.376,"RA_OF_ASC_NODE":149.6935,"ARG_OF_PERICENTER":284.951,"MEAN_ANOMALY":75.1409,"EPHEMERIS_TYPE":0,"CLASSIFICATION_TYPE":"U","NORAD_CAT_ID":60505,"ELEMENT_SET_NO":999,"REV_AT_EPOCH":8666,"BSTAR":0.00078338,"MEAN_MOTION_DOT":0.00030286,"MEAN_MOTION_DDOT":0},{"OBJECT_NAME":"TANAGER-1","OBJECT_ID":"2024-149AR","EPOCH":"2026-03-05T08:23:36.927744","MEAN_MOTION":15.43548696,"ECCENTRICITY":0.0006725,"INCLINATION":97.377,"RA_OF_ASC_NODE":157.6642,"ARG_OF_PERICENTER":235.9479,"MEAN_ANOMALY":124.1131,"EPHEMERIS_TYPE":0,"CLASSIFICATION_TYPE":"U","NORAD_CAT_ID":60507,"ELEMENT_SET_NO":999,"REV_AT_EPOCH":8701,"BSTAR":0.00012407,"MEAN_MOTION_DOT":5.482e-5,"MEAN_MOTION_DDOT":0},{"OBJECT_NAME":"FLOCK 4BE-29","OBJECT_ID":"2024-149AT","EPOCH":"2026-03-07T04:38:05.473824","MEAN_MOTION":15.4030916,"ECCENTRICITY":0.00019446,"INCLINATION":97.3846,"RA_OF_ASC_NODE":150.7965,"ARG_OF_PERICENTER":304.9243,"MEAN_ANOMALY":55.182,"EPHEMERIS_TYPE":0,"CLASSIFICATION_TYPE":"U","NORAD_CAT_ID":60509,"ELEMENT_SET_NO":999,"REV_AT_EPOCH":8669,"BSTAR":0.00067553693,"MEAN_MOTION_DOT":0.00027206,"MEAN_MOTION_DDOT":0},{"OBJECT_NAME":"FLOCK 4BE-2","OBJECT_ID":"2024-149AV","EPOCH":"2026-03-07T03:57:58.885632","MEAN_MOTION":15.42926469,"ECCENTRICITY":0.00027927,"INCLINATION":97.3851,"RA_OF_ASC_NODE":151.3371,"ARG_OF_PERICENTER":282.9083,"MEAN_ANOMALY":77.1852,"EPHEMERIS_TYPE":0,"CLASSIFICATION_TYPE":"U","NORAD_CAT_ID":60511,"ELEMENT_SET_NO":999,"REV_AT_EPOCH":8672,"BSTAR":0.0011639553,"MEAN_MOTION_DOT":0.0005136,"MEAN_MOTION_DDOT":0},{"OBJECT_NAME":"FLOCK 4BE-13","OBJECT_ID":"2024-149AW","EPOCH":"2026-03-07T04:05:02.504832","MEAN_MOTION":15.38702815,"ECCENTRICITY":0.00033991,"INCLINATION":97.3761,"RA_OF_ASC_NODE":149.7359,"ARG_OF_PERICENTER":277.1244,"MEAN_ANOMALY":82.9614,"EPHEMERIS_TYPE":0,"CLASSIFICATION_TYPE":"U","NORAD_CAT_ID":60512,"ELEMENT_SET_NO":999,"REV_AT_EPOCH":8666,"BSTAR":0.00057116004,"MEAN_MOTION_DOT":0.00021798,"MEAN_MOTION_DDOT":0},{"OBJECT_NAME":"FLOCK 4BE-27","OBJECT_ID":"2024-149AX","EPOCH":"2026-03-07T04:58:03.422784","MEAN_MOTION":15.32522988,"ECCENTRICITY":0.0002723,"INCLINATION":97.3866,"RA_OF_ASC_NODE":148.1357,"ARG_OF_PERICENTER":318.241,"MEAN_ANOMALY":41.8624,"EPHEMERIS_TYPE":0,"CLASSIFICATION_TYPE":"U","NORAD_CAT_ID":60513,"ELEMENT_SET_NO":999,"REV_AT_EPOCH":8651,"BSTAR":0.0004569,"MEAN_MOTION_DOT":0.00014283,"MEAN_MOTION_DDOT":0},{"OBJECT_NAME":"FLOCK 4BE-9","OBJECT_ID":"2024-149AY","EPOCH":"2026-03-07T05:14:54.252672","MEAN_MOTION":15.37482588,"ECCENTRICITY":0.0001517,"INCLINATION":97.383,"RA_OF_ASC_NODE":149.7354,"ARG_OF_PERICENTER":309.665,"MEAN_ANOMALY":50.4461,"EPHEMERIS_TYPE":0,"CLASSIFICATION_TYPE":"U","NORAD_CAT_ID":60514,"ELEMENT_SET_NO":999,"REV_AT_EPOCH":8663,"BSTAR":0.00067515,"MEAN_MOTION_DOT":0.00024788,"MEAN_MOTION_DDOT":0},{"OBJECT_NAME":"FLOCK 4BE-6","OBJECT_ID":"2024-149BA","EPOCH":"2026-03-07T04:12:58.835808","MEAN_MOTION":15.36510185,"ECCENTRICITY":0.00022559,"INCLINATION":97.3833,"RA_OF_ASC_NODE":149.2208,"ARG_OF_PERICENTER":305.3477,"MEAN_ANOMALY":54.7556,"EPHEMERIS_TYPE":0,"CLASSIFICATION_TYPE":"U","NORAD_CAT_ID":60516,"ELEMENT_SET_NO":999,"REV_AT_EPOCH":8659,"BSTAR":0.00048558432,"MEAN_MOTION_DOT":0.00017239,"MEAN_MOTION_DDOT":0},{"OBJECT_NAME":"FLOCK 4BE-14","OBJECT_ID":"2024-149BB","EPOCH":"2026-03-07T04:13:28.584192","MEAN_MOTION":15.37563988,"ECCENTRICITY":0.0003236,"INCLINATION":97.3745,"RA_OF_ASC_NODE":149.2924,"ARG_OF_PERICENTER":301.491,"MEAN_ANOMALY":58.6018,"EPHEMERIS_TYPE":0,"CLASSIFICATION_TYPE":"U","NORAD_CAT_ID":60517,"ELEMENT_SET_NO":999,"REV_AT_EPOCH":8663,"BSTAR":0.00054975542,"MEAN_MOTION_DOT":0.00020212,"MEAN_MOTION_DDOT":0},{"OBJECT_NAME":"FLOCK 4BE-1","OBJECT_ID":"2024-149BC","EPOCH":"2026-03-07T05:23:36.679776","MEAN_MOTION":15.38847847,"ECCENTRICITY":0.0003207,"INCLINATION":97.382,"RA_OF_ASC_NODE":150.2785,"ARG_OF_PERICENTER":296.4481,"MEAN_ANOMALY":63.6435,"EPHEMERIS_TYPE":0,"CLASSIFICATION_TYPE":"U","NORAD_CAT_ID":60518,"ELEMENT_SET_NO":999,"REV_AT_EPOCH":8667,"BSTAR":0.00073121,"MEAN_MOTION_DOT":0.00028084,"MEAN_MOTION_DDOT":0},{"OBJECT_NAME":"FLOCK 4BE-28","OBJECT_ID":"2024-149BD","EPOCH":"2026-03-07T04:32:37.029408","MEAN_MOTION":15.40865333,"ECCENTRICITY":0.00035581,"INCLINATION":97.3787,"RA_OF_ASC_NODE":150.6708,"ARG_OF_PERICENTER":296.7972,"MEAN_ANOMALY":63.291,"EPHEMERIS_TYPE":0,"CLASSIFICATION_TYPE":"U","NORAD_CAT_ID":60519,"ELEMENT_SET_NO":999,"REV_AT_EPOCH":8671,"BSTAR":0.00065007685,"MEAN_MOTION_DOT":0.00026664,"MEAN_MOTION_DDOT":0}]
