FLOCK 4BE-22            
1 60494U 24149AC  26066.48224972  .00028171  00000+0  76313-3 0  9992
2 60494  97.3776 149.3199 0002773 269.6920  90.4007 15.37624133 86653
FLOCK 4BE-34            
1 60495U 24149AD  26066.50468306  .00022777  00000+0  61273-3 0  9992
2 60495  97.3821 150.0891 0002351 272.1838  87.9137 15.37884131 86686
FLOCK 4BE-32            
1 60497U 24149AF  26066.19822831  .00024428  00000+0  64717-3 0  9997
2 60497  97.3766 149.2876 0002708 276.1202  83.9735 15.38340527 86636
FLOCK 4BE-30            
1 60499U 24149AH  26066.46936965  .00017501  00000+0  46803-3 0  9993
2 60499  97.3847 150.1206 0001982 271.7023  88.3994 15.38120865 86054
FLOCK 4BE-11            
1 60501U 24149AK  26066.18298024  .00024046  00000+0  62037-3 0  9992
2 60501  97.3745 149.4006 0003088 274.7320  85.3573 15.39159463 86648
FLOCK 4BE-24            
1 60505U 24149AP  26066.22938285  .00030286  00000+0  78338-3 0  9995
2 60505  97.3760 149.6935 0002945 284.9510  75.1409 15.39034866 86663
TANAGER-1               
1 60507U 24149AR  26064.34973296  .00005482  00000+0  12407-3 0  9994
2 60507  97.3770 157.6642 0006725 235.9479 124.1131 15.43548696 87013
FLOCK 4BE-29            
1 60509U 24149AT  26066.19311891  .00027206  00000+0  67554-3 0  9999
2 60509  97.3846 150.7965 0001944 304.9243  55.1820 15.40309160 86694
FLOCK 4BE-2             
1 60511U 24149AV  26066.16526488  .00051360  00000+0  11640-2 0  9991
2 60511  97.3851 151.3371 0002792 282.9083  77.1852 15.42926469 86722
FLOCK 4BE-13            
1 60512U 24149AW  26066.17016788  .00021798  00000+0  57116-3 0  9991
2 60512  97.3761 149.7359 0003399 277.1244  82.9614 15.38702815 86664
FLOCK 4BE-27            
1 60513U 24149AX  26066.20698406  .00014283  00000+0  45690-3 0  9994
2 60513  97.3866 148.1357 0002723 318.2410  41.8624 15.32522988 86518
FLOCK 4BE-9             
1 60514U 24149AY  26066.21868348  .00024788  00000+0  67515-3 0  9991
2 60514  97.3830 149.7354 0001517 309.6650  50.4461 15.37482588 86638
FLOCK 4BE-6             
1 60516U 24149BA  26066.17568097  .00017239  00000+0  48558-3 0  9995
2 60516  97.3833 149.2208 0002255 305.3477  54.7556 15.36510185 86597
FLOCK 4BE-14            
1 60517U 24149BB  26066.17602528  .00020212  00000+0  54976-3 0  9990
2 60517  97.3745 149.2924 0003236 301.4910  58.6018 15.37563988 86635
FLOCK 4BE-1             
1 60518U 24149BC  26066.22473009  .00028084  00000+0  73121-3 0  9995
2 60518  97.3820 150.2785 0003207 296.4481  63.6435 15.38847847 86674
FLOCK 4BE-28            
1 60519U 24149BD  26066.18931747  .00026664  00000+0  65008-3 0  9996
2 60519  97.3787 150.6708 0003558 296.7972  63.2910 15.40865333 86715
